[
    {
        "Altitude(m)": 612502.2192654877,
        "Argument of Periapsis(deg)": 0.0,
        "Eccentricity": 0.0,
        "Inclination(deg)": 60.0,
        "Latitude(deg)": -28.136052925943275,
        "Longitude(deg)": 7.148303567120233,
        "Mean Anomaly(deg)": -32.72730000000001,
        "RAAN(deg)": 125.00000000000001,
        "Satellite Name": "Test1 570",
        "Satellite Number": 570,
        "Semi-Major Axis(m)": 6980739.136638005,
        "Time(s)": 0
    },
    {
        "Altitude(m)": 612308.6666614434,
        "Argument of Periapsis(deg)": 0.00010418945913296404,
        "Eccentricity": 0.0,
        "Inclination(deg)": 60.0,
        "Latitude(deg)": -27.623107605487064,
        "Longitude(deg)": 7.501776809504247,
        "Mean Anomaly(deg)": -32.10719385453816,
        "RAAN(deg)": 124.99957995086027,
        "Satellite Name": "Test1 570",
        "Satellite Number": 570,
        "Semi-Major Axis(m)": 6980739.136638005,
        "Time(s)": 10
    }
]